{
"type": "FeatureCollection",
"name": "moct_node_sample",
"features": [
{ "type": "Feature", "properties": { "NODE_ID": "1190017701", "NODE_TYPE": "104", "NODE_NAME": "상도터널(북측)", "TURN_P": "0", "UPDATEDATE": "20250512", "REMARK": null, "HIST_TYPE": "NODE0001", "HISTREMARK": null }, "geometry": { "type": "Point", "coordinates": [ 195863.581140935973963, 545689.378698379499838 ] } },
{ "type": "Feature", "properties": { "NODE_ID": "1020032201", "NODE_TYPE": "101", "NODE_NAME": "해방촌오거리", "TURN_P": "0", "UPDATEDATE": "20250512", "REMARK": null, "HIST_TYPE": "NODE0001", "HISTREMARK": null }, "geometry": { "type": "Point", "coordinates": [ 198711.33437894412782, 549597.442981075146236 ] } },
{ "type": "Feature", "properties": { "NODE_ID": "1190015203", "NODE_TYPE": "101", "NODE_NAME": "형인한강아파트", "TURN_P": "0", "UPDATEDATE": "20250512", "REMARK": null, "HIST_TYPE": "NODE0001", "HISTREMARK": null }, "geometry": { "type": "Point", "coordinates": [ 195458.993863055045949, 545373.656549241277389 ] } },
{ "type": "Feature", "properties": { "NODE_ID": "1190020702", "NODE_TYPE": "101", "NODE_NAME": "수산시장입구교차로", "TURN_P": "0", "UPDATEDATE": "20250512", "REMARK": null, "HIST_TYPE": "NODE0001", "HISTREMARK": null }, "geometry": { "type": "Point", "coordinates": [ 195295.333853891876061, 545990.008175053168088 ] } },
{ "type": "Feature", "properties": { "NODE_ID": "1020025304", "NODE_TYPE": "101", "NODE_NAME": "이태원호텔앞교차로", "TURN_P": "0", "UPDATEDATE": "20250512", "REMARK": null, "HIST_TYPE": "NODE0001", "HISTREMARK": null }, "geometry": { "type": "Point", "coordinates": [ 199879.963125342386775, 548417.360708237043582 ] } },
{ "type": "Feature", "properties": { "NODE_ID": "1190027401", "NODE_TYPE": "102", "NODE_NAME": "상도동527-2", "TURN_P": "0", "UPDATEDATE": "20250512", "REMARK": null, "HIST_TYPE": "NODE0001", "HISTREMARK": null }, "geometry": { "type": "Point", "coordinates": [ 195122.120600000023842, 545181.54619999974966 ] } },
{ "type": "Feature", "properties": { "NODE_ID": "1020062200", "NODE_TYPE": "101", "NODE_NAME": "이태원동 225-49", "TURN_P": "0", "UPDATEDATE": "20250512", "REMARK": null, "HIST_TYPE": "NODE0001", "HISTREMARK": null }, "geometry": { "type": "Point", "coordinates": [ 199131.475695310364245, 548900.243803348043002 ] } },
{ "type": "Feature", "properties": { "NODE_ID": "1020070800", "NODE_TYPE": "101", "NODE_NAME": "산천동 36-4", "TURN_P": "0", "UPDATEDATE": "20250512", "REMARK": null, "HIST_TYPE": "NODE0001", "HISTREMARK": null }, "geometry": { "type": "Point", "coordinates": [ 195784.182809275051113, 548362.706284276559018 ] } },
{ "type": "Feature", "properties": { "NODE_ID": "1020083600", "NODE_TYPE": "101", "NODE_NAME": "이태원동 243-60", "TURN_P": "0", "UPDATEDATE": "20250512", "REMARK": null, "HIST_TYPE": "NODE0001", "HISTREMARK": null }, "geometry": { "type": "Point", "coordinates": [ 199600.921484907215927, 548904.600018327822909 ] } },
{ "type": "Feature", "properties": { "NODE_ID": "1020087400", "NODE_TYPE": "101", "NODE_NAME": "효창동 158-1", "TURN_P": "0", "UPDATEDATE": "20250512", "REMARK": null, "HIST_TYPE": "NODE0001", "HISTREMARK": null }, "geometry": { "type": "Point", "coordinates": [ 196436.538642048166366, 548937.617378434748389 ] } },
{ "type": "Feature", "properties": { "NODE_ID": "1020187100", "NODE_TYPE": "101", "NODE_NAME": "후암동 398-2", "TURN_P": "0", "UPDATEDATE": "20250512", "REMARK": null, "HIST_TYPE": "NODE0001", "HISTREMARK": null }, "geometry": { "type": "Point", "coordinates": [ 198426.3514284202829, 549929.862886120332405 ] } },
{ "type": "Feature", "properties": { "NODE_ID": "1190049500", "NODE_TYPE": "101", "NODE_NAME": "흑석동 233-5", "TURN_P": "0", "UPDATEDATE": "20250512", "REMARK": null, "HIST_TYPE": "NODE0001", "HISTREMARK": null }, "geometry": { "type": "Point", "coordinates": [ 196557.846598286792869, 545191.02687899931334 ] } },
{ "type": "Feature", "properties": { "NODE_ID": "1020093600", "NODE_TYPE": "101", "NODE_NAME": "이태원동 57-6", "TURN_P": "0", "UPDATEDATE": "20250512", "REMARK": null, "HIST_TYPE": "NODE0001", "HISTREMARK": null }, "geometry": { "type": "Point", "coordinates": [ 199130.917916947364574, 548299.410270706866868 ] } },
{ "type": "Feature", "properties": { "NODE_ID": "1020130000", "NODE_TYPE": "101", "NODE_NAME": "이촌동 300-11", "TURN_P": "0", "UPDATEDATE": "20250512", "REMARK": null, "HIST_TYPE": "NODE0001", "HISTREMARK": null }, "geometry": { "type": "Point", "coordinates": [ 198117.889972884237068, 546362.702817352372222 ] } },
{ "type": "Feature", "properties": { "NODE_ID": "1130220200", "NODE_TYPE": "101", "NODE_NAME": "공덕동 108-55", "TURN_P": "0", "UPDATEDATE": "20250512", "REMARK": null, "HIST_TYPE": "NODE0001", "HISTREMARK": null }, "geometry": { "type": "Point", "coordinates": [ 196435.175372921105009, 549918.100343589903787 ] } },
{ "type": "Feature", "properties": { "NODE_ID": "1020194600", "NODE_TYPE": "101", "NODE_NAME": "후암동 254-115", "TURN_P": "0", "UPDATEDATE": "20250512", "REMARK": null, "HIST_TYPE": "NODE0001", "HISTREMARK": null }, "geometry": { "type": "Point", "coordinates": [ 198090.60491953449673, 549667.117890311055817 ] } },
{ "type": "Feature", "properties": { "NODE_ID": "1020166300", "NODE_TYPE": "101", "NODE_NAME": "한남동 743-28", "TURN_P": "0", "UPDATEDATE": "20250512", "REMARK": null, "HIST_TYPE": "NODE0001", "HISTREMARK": null }, "geometry": { "type": "Point", "coordinates": [ 199841.72649999987334, 548709.363399999216199 ] } },
{ "type": "Feature", "properties": { "NODE_ID": "1020174800", "NODE_TYPE": "107", "NODE_NAME": "최소노드배치점", "TURN_P": "0", "UPDATEDATE": "20250512", "REMARK": null, "HIST_TYPE": "NODE0001", "HISTREMARK": null }, "geometry": { "type": "Point", "coordinates": [ 198451.908274055604124, 546199.755760525469668 ] } },
{ "type": "Feature", "properties": { "NODE_ID": "1020203500", "NODE_TYPE": "107", "NODE_NAME": "최소노드배치점", "TURN_P": "0", "UPDATEDATE": "20250512", "REMARK": null, "HIST_TYPE": "NODE0001", "HISTREMARK": null }, "geometry": { "type": "Point", "coordinates": [ 199893.463117233215598, 549634.30157598562073 ] } },
{ "type": "Feature", "properties": { "NODE_ID": "1210044901", "NODE_TYPE": "104", "NODE_NAME": "반포대교", "TURN_P": "0", "UPDATEDATE": "20250512", "REMARK": null, "HIST_TYPE": "NODE0001", "HISTREMARK": null }, "geometry": { "type": "Point", "coordinates": [ 199948.641811363078887, 545468.95138726697769 ] } },
{ "type": "Feature", "properties": { "NODE_ID": "1020023504", "NODE_TYPE": "101", "NODE_NAME": "원효로2동주민센터", "TURN_P": "0", "UPDATEDATE": "20250512", "REMARK": null, "HIST_TYPE": "NODE0001", "HISTREMARK": null }, "geometry": { "type": "Point", "coordinates": [ 195632.276334545080317, 548301.64067901589442 ] } },
{ "type": "Feature", "properties": { "NODE_ID": "1130014404", "NODE_TYPE": "101", "NODE_NAME": "염리동 164-14", "TURN_P": "0", "UPDATEDATE": "20250512", "REMARK": null, "HIST_TYPE": "NODE0001", "HISTREMARK": null }, "geometry": { "type": "Point", "coordinates": [ 195185.762243041914189, 549450.642454043379985 ] } },
{ "type": "Feature", "properties": { "NODE_ID": "1020007902", "NODE_TYPE": "104", "NODE_NAME": "이촌지하차도(서측)", "TURN_P": "0", "UPDATEDATE": "20250512", "REMARK": null, "HIST_TYPE": "NODE0001", "HISTREMARK": null }, "geometry": { "type": "Point", "coordinates": [ 198390.59139763697749, 546488.777000016649254 ] } },
{ "type": "Feature", "properties": { "NODE_ID": "1020007904", "NODE_TYPE": "101", "NODE_NAME": "이촌동301-163", "TURN_P": "0", "UPDATEDATE": "20250512", "REMARK": null, "HIST_TYPE": "NODE0001", "HISTREMARK": null }, "geometry": { "type": "Point", "coordinates": [ 198195.655096208996838, 546524.051981978584081 ] } },
{ "type": "Feature", "properties": { "NODE_ID": "1020020303", "NODE_TYPE": "101", "NODE_NAME": "한강로3가 40-959", "TURN_P": "0", "UPDATEDATE": "20250512", "REMARK": null, "HIST_TYPE": "NODE0001", "HISTREMARK": null }, "geometry": { "type": "Point", "coordinates": [ 196933.351402024331037, 548024.946493470109999 ] } },
{ "type": "Feature", "properties": { "NODE_ID": "1020007601", "NODE_TYPE": "101", "NODE_NAME": "서빙고동271-100", "TURN_P": "0", "UPDATEDATE": "20250512", "REMARK": null, "HIST_TYPE": "NODE0001", "HISTREMARK": null }, "geometry": { "type": "Point", "coordinates": [ 199087.606139539915603, 546422.021816318039782 ] } },
{ "type": "Feature", "properties": { "NODE_ID": "1130020501", "NODE_TYPE": "101", "NODE_NAME": "공덕동 117-26", "TURN_P": "0", "UPDATEDATE": "20250512", "REMARK": null, "HIST_TYPE": "NODE0001", "HISTREMARK": null }, "geometry": { "type": "Point", "coordinates": [ 196212.04639839741867, 549853.328039120184258 ] } },
{ "type": "Feature", "properties": { "NODE_ID": "1020001003", "NODE_TYPE": "101", "NODE_NAME": "강촌아파트", "TURN_P": "0", "UPDATEDATE": "20250512", "REMARK": null, "HIST_TYPE": "NODE0001", "HISTREMARK": null }, "geometry": { "type": "Point", "coordinates": [ 197904.614877171145054, 546625.841921279788949 ] } },
{ "type": "Feature", "properties": { "NODE_ID": "1130020401", "NODE_TYPE": "101", "NODE_NAME": "마포빌딩", "TURN_P": "0", "UPDATEDATE": "20250512", "REMARK": null, "HIST_TYPE": "NODE0001", "HISTREMARK": null }, "geometry": { "type": "Point", "coordinates": [ 195861.399555532378145, 549828.579314716742374 ] } },
{ "type": "Feature", "properties": { "NODE_ID": "1130021501", "NODE_TYPE": "101", "NODE_NAME": "마포현대아파트", "TURN_P": "0", "UPDATEDATE": "20250512", "REMARK": null, "HIST_TYPE": "NODE0001", "HISTREMARK": null }, "geometry": { "type": "Point", "coordinates": [ 195622.348435893160058, 549941.558110255864449 ] } },
{ "type": "Feature", "properties": { "NODE_ID": "1190015502", "NODE_TYPE": "101", "NODE_NAME": "서울시근린공원부지앞", "TURN_P": "0", "UPDATEDATE": "20250512", "REMARK": null, "HIST_TYPE": "NODE0001", "HISTREMARK": null }, "geometry": { "type": "Point", "coordinates": [ 195718.457887988071889, 545396.71451829012949 ] } },
{ "type": "Feature", "properties": { "NODE_ID": "1020006400", "NODE_TYPE": "106", "NODE_NAME": "동작대교북측(남측)", "TURN_P": "0", "UPDATEDATE": "20250512", "REMARK": null, "HIST_TYPE": "NODE0005", "HISTREMARK": null }, "geometry": { "type": "Point", "coordinates": [ 198487.784599999897182, 546169.965399999171495 ] } },
{ "type": "Feature", "properties": { "NODE_ID": "1020031002", "NODE_TYPE": "101", "NODE_NAME": "청파치안센터", "TURN_P": "1", "UPDATEDATE": "20250512", "REMARK": null, "HIST_TYPE": "NODE0001", "HISTREMARK": null }, "geometry": { "type": "Point", "coordinates": [ 197417.948883784207283, 549403.501619266462512 ] } },
{ "type": "Feature", "properties": { "NODE_ID": "1130019304", "NODE_TYPE": "101", "NODE_NAME": "한겨레신문사앞", "TURN_P": "1", "UPDATEDATE": "20250512", "REMARK": null, "HIST_TYPE": "NODE0001", "HISTREMARK": null }, "geometry": { "type": "Point", "coordinates": [ 196288.819979680032702, 549764.687375390320085 ] } },
{ "type": "Feature", "properties": { "NODE_ID": "1130013802", "NODE_TYPE": "101", "NODE_NAME": "주한카메룬명예영사관", "TURN_P": "1", "UPDATEDATE": "20250512", "REMARK": null, "HIST_TYPE": "NODE0001", "HISTREMARK": null }, "geometry": { "type": "Point", "coordinates": [ 195811.008654489414766, 549407.211571017280221 ] } },
{ "type": "Feature", "properties": { "NODE_ID": "1020007701", "NODE_TYPE": "101", "NODE_NAME": "이촌지하차도", "TURN_P": "1", "UPDATEDATE": "20250512", "REMARK": null, "HIST_TYPE": "NODE0001", "HISTREMARK": null }, "geometry": { "type": "Point", "coordinates": [ 198497.118432582559763, 546470.055781309492886 ] } },
{ "type": "Feature", "properties": { "NODE_ID": "1020014404", "NODE_TYPE": "101", "NODE_NAME": "한강중교앞교차로", "TURN_P": "0", "UPDATEDATE": "20250512", "REMARK": null, "HIST_TYPE": "NODE0001", "HISTREMARK": null }, "geometry": { "type": "Point", "coordinates": [ 199273.266933161998168, 547372.412057191831991 ] } },
{ "type": "Feature", "properties": { "NODE_ID": "1190027402", "NODE_TYPE": "102", "NODE_NAME": "상도동527-2", "TURN_P": "0", "UPDATEDATE": "20250512", "REMARK": null, "HIST_TYPE": "NODE0001", "HISTREMARK": null }, "geometry": { "type": "Point", "coordinates": [ 195110.450899999588728, 545184.342499999329448 ] } },
{ "type": "Feature", "properties": { "NODE_ID": "1020053300", "NODE_TYPE": "101", "NODE_NAME": "용문동 32-2", "TURN_P": "0", "UPDATEDATE": "20250512", "REMARK": null, "HIST_TYPE": "NODE0001", "HISTREMARK": null }, "geometry": { "type": "Point", "coordinates": [ 196490.757644280558452, 548812.724079915671609 ] } },
{ "type": "Feature", "properties": { "NODE_ID": "1020026100", "NODE_TYPE": "101", "NODE_NAME": "삼각지역10번출구", "TURN_P": "0", "UPDATEDATE": "20230519", "REMARK": null, "HIST_TYPE": null, "HISTREMARK": null }, "geometry": { "type": "Point", "coordinates": [ 197727.498700000345707, 548558.035700000822544 ] } },
{ "type": "Feature", "properties": { "NODE_ID": "1020025800", "NODE_TYPE": "101", "NODE_NAME": "삼각지역8번출구", "TURN_P": "0", "UPDATEDATE": "20230519", "REMARK": null, "HIST_TYPE": null, "HISTREMARK": null }, "geometry": { "type": "Point", "coordinates": [ 197632.588100000284612, 548485.358500000089407 ] } },
{ "type": "Feature", "properties": { "NODE_ID": "1130052300", "NODE_TYPE": "101", "NODE_NAME": "롯데캐슬프레지던트오", "TURN_P": "0", "UPDATEDATE": "20230519", "REMARK": null, "HIST_TYPE": null, "HISTREMARK": null }, "geometry": { "type": "Point", "coordinates": [ 195717.153199999593198, 549477.921499999240041 ] } },
{ "type": "Feature", "properties": { "NODE_ID": "1020113900", "NODE_TYPE": "101", "NODE_NAME": "이태원동 276-10", "TURN_P": "0", "UPDATEDATE": "20250512", "REMARK": null, "HIST_TYPE": "NODE0001", "HISTREMARK": null }, "geometry": { "type": "Point", "coordinates": [ 199004.76066213301965, 548836.849171142210253 ] } },
{ "type": "Feature", "properties": { "NODE_ID": "1020140500", "NODE_TYPE": "101", "NODE_NAME": "이태원동 229-3", "TURN_P": "0", "UPDATEDATE": "20250512", "REMARK": null, "HIST_TYPE": "NODE0001", "HISTREMARK": null }, "geometry": { "type": "Point", "coordinates": [ 199439.681040525669232, 548971.776196209364571 ] } },
{ "type": "Feature", "properties": { "NODE_ID": "1020198000", "NODE_TYPE": "101", "NODE_NAME": "용산동2가 5-2146", "TURN_P": "0", "UPDATEDATE": "20250512", "REMARK": null, "HIST_TYPE": "NODE0001", "HISTREMARK": null }, "geometry": { "type": "Point", "coordinates": [ 198884.64740000013262, 549616.387000000104308 ] } },
{ "type": "Feature", "properties": { "NODE_ID": "1020158500", "NODE_TYPE": "101", "NODE_NAME": "용문동 9-2", "TURN_P": "0", "UPDATEDATE": "20250512", "REMARK": null, "HIST_TYPE": "NODE0001", "HISTREMARK": null }, "geometry": { "type": "Point", "coordinates": [ 196544.567764866107609, 548550.517859634826891 ] } },
{ "type": "Feature", "properties": { "NODE_ID": "1020159200", "NODE_TYPE": "101", "NODE_NAME": "원효로1가 23-5", "TURN_P": "0", "UPDATEDATE": "20250512", "REMARK": null, "HIST_TYPE": "NODE0001", "HISTREMARK": null }, "geometry": { "type": "Point", "coordinates": [ 196915.315647146577248, 548764.123345397412777 ] } },
{ "type": "Feature", "properties": { "NODE_ID": "1020172000", "NODE_TYPE": "101", "NODE_NAME": "용산동1가 8-4", "TURN_P": "0", "UPDATEDATE": "20250512", "REMARK": null, "HIST_TYPE": "NODE0001", "HISTREMARK": null }, "geometry": { "type": "Point", "coordinates": [ 197862.047329867782537, 548343.073184801498428 ] } },
{ "type": "Feature", "properties": { "NODE_ID": "1020017400", "NODE_TYPE": "106", "NODE_NAME": "원효대교북측(서측)", "TURN_P": "0", "UPDATEDATE": "20250512", "REMARK": null, "HIST_TYPE": "NODE0005", "HISTREMARK": null }, "geometry": { "type": "Point", "coordinates": [ 195680.750500000081956, 547829.767599999904633 ] } },
{ "type": "Feature", "properties": { "NODE_ID": "1190002102", "NODE_TYPE": "101", "NODE_NAME": "노량진삼익아파트", "TURN_P": "0", "UPDATEDATE": "20250512", "REMARK": null, "HIST_TYPE": "NODE0001", "HISTREMARK": null }, "geometry": { "type": "Point", "coordinates": [ 195119.643225613835966, 545681.469394488027319 ] } },
{ "type": "Feature", "properties": { "NODE_ID": "1020033801", "NODE_TYPE": "105", "NODE_NAME": "중구-용산구", "TURN_P": "0", "UPDATEDATE": "20250512", "REMARK": null, "HIST_TYPE": "NODE0001", "HISTREMARK": null }, "geometry": { "type": "Point", "coordinates": [ 199494.666810616530711, 549863.939911927212961 ] } },
{ "type": "Feature", "properties": { "NODE_ID": "1190015701", "NODE_TYPE": "101", "NODE_NAME": "동작자원봉사센터", "TURN_P": "0", "UPDATEDATE": "20250512", "REMARK": null, "HIST_TYPE": "NODE0001", "HISTREMARK": null }, "geometry": { "type": "Point", "coordinates": [ 195346.412271088833222, 545415.855834088404663 ] } },
{ "type": "Feature", "properties": { "NODE_ID": "1130020502", "NODE_TYPE": "101", "NODE_NAME": "공덕동 119-41", "TURN_P": "0", "UPDATEDATE": "20250512", "REMARK": null, "HIST_TYPE": "NODE0001", "HISTREMARK": null }, "geometry": { "type": "Point", "coordinates": [ 196201.807799999602139, 549851.182000000029802 ] } },
{ "type": "Feature", "properties": { "NODE_ID": "1130056401", "NODE_TYPE": "102", "NODE_NAME": "공덕한화꿈에그린아파트", "TURN_P": "0", "UPDATEDATE": "20250512", "REMARK": null, "HIST_TYPE": "NODE0001", "HISTREMARK": null }, "geometry": { "type": "Point", "coordinates": [ 195999.335799999535084, 549732.429500000551343 ] } },
{ "type": "Feature", "properties": { "NODE_ID": "1210080804", "NODE_TYPE": "101", "NODE_NAME": "계성초등학교", "TURN_P": "0", "UPDATEDATE": "20250512", "REMARK": null, "HIST_TYPE": "NODE0001", "HISTREMARK": null }, "geometry": { "type": "Point", "coordinates": [ 199735.118341930879978, 545108.899153267033398 ] } },
{ "type": "Feature", "properties": { "NODE_ID": "1190015801", "NODE_TYPE": "101", "NODE_NAME": "흑석2동신한은행", "TURN_P": "0", "UPDATEDATE": "20250512", "REMARK": null, "HIST_TYPE": "NODE0001", "HISTREMARK": null }, "geometry": { "type": "Point", "coordinates": [ 196574.208866667002439, 545406.835199999273755 ] } },
{ "type": "Feature", "properties": { "NODE_ID": "1190015503", "NODE_TYPE": "101", "NODE_NAME": "서울시근린공원부지앞", "TURN_P": "0", "UPDATEDATE": "20250512", "REMARK": null, "HIST_TYPE": "NODE0001", "HISTREMARK": null }, "geometry": { "type": "Point", "coordinates": [ 195706.757703654060606, 545393.959052543970756 ] } },
{ "type": "Feature", "properties": { "NODE_ID": "1020031902", "NODE_TYPE": "101", "NODE_NAME": "숙명여대입구교차로", "TURN_P": "1", "UPDATEDATE": "20250512", "REMARK": null, "HIST_TYPE": "NODE0001", "HISTREMARK": null }, "geometry": { "type": "Point", "coordinates": [ 197410.929965620598523, 549486.609667607815936 ] } },
{ "type": "Feature", "properties": { "NODE_ID": "1020029104", "NODE_TYPE": "101", "NODE_NAME": "효창공원앞역사거리", "TURN_P": "0", "UPDATEDATE": "20250512", "REMARK": null, "HIST_TYPE": "NODE0001", "HISTREMARK": null }, "geometry": { "type": "Point", "coordinates": [ 196584.008265517797554, 548875.888473671628162 ] } },
{ "type": "Feature", "properties": { "NODE_ID": "1020015803", "NODE_TYPE": "101", "NODE_NAME": "용산역광장앞삼거리", "TURN_P": "0", "UPDATEDATE": "20250512", "REMARK": null, "HIST_TYPE": "NODE0001", "HISTREMARK": null }, "geometry": { "type": "Point", "coordinates": [ 196948.656832466833293, 547683.687297518714331 ] } },
{ "type": "Feature", "properties": { "NODE_ID": "1020027301", "NODE_TYPE": "101", "NODE_NAME": "삼각지고가차도", "TURN_P": "1", "UPDATEDATE": "20250512", "REMARK": null, "HIST_TYPE": "NODE0001", "HISTREMARK": null }, "geometry": { "type": "Point", "coordinates": [ 197187.519407917221542, 548675.644750721869059 ] } },
{ "type": "Feature", "properties": { "NODE_ID": "1020032503", "NODE_TYPE": "101", "NODE_NAME": "용산2가동주민센터앞교차로", "TURN_P": "0", "UPDATEDATE": "20250512", "REMARK": null, "HIST_TYPE": "NODE0001", "HISTREMARK": null }, "geometry": { "type": "Point", "coordinates": [ 198700.285308999475092, 549662.336676054866984 ] } },
{ "type": "Feature", "properties": { "NODE_ID": "1130057100", "NODE_TYPE": "106", "NODE_NAME": "마포대교(북측)", "TURN_P": "0", "UPDATEDATE": "20250512", "REMARK": null, "HIST_TYPE": "NODE0005", "HISTREMARK": null }, "geometry": { "type": "Point", "coordinates": [ 195082.438099999912083, 548335.829600000753999 ] } },
{ "type": "Feature", "properties": { "NODE_ID": "1130019704", "NODE_TYPE": "101", "NODE_NAME": "공덕동 237-9", "TURN_P": "0", "UPDATEDATE": "20250512", "REMARK": null, "HIST_TYPE": "NODE0001", "HISTREMARK": null }, "geometry": { "type": "Point", "coordinates": [ 195904.91661989747081, 549802.127761044888757 ] } },
{ "type": "Feature", "properties": { "NODE_ID": "1020031204", "NODE_TYPE": "101", "NODE_NAME": "주한파키스탄대사관저", "TURN_P": "0", "UPDATEDATE": "20250512", "REMARK": null, "HIST_TYPE": "NODE0001", "HISTREMARK": null }, "geometry": { "type": "Point", "coordinates": [ 199203.596900054108119, 549427.092993961647153 ] } },
{ "type": "Feature", "properties": { "NODE_ID": "1190016103", "NODE_TYPE": "101", "NODE_NAME": "중앙대병원입구교차로", "TURN_P": "1", "UPDATEDATE": "20250512", "REMARK": null, "HIST_TYPE": "NODE0001", "HISTREMARK": null }, "geometry": { "type": "Point", "coordinates": [ 196806.999706487375079, 545460.24792290001642 ] } },
{ "type": "Feature", "properties": { "NODE_ID": "1130011000", "NODE_TYPE": "101", "NODE_NAME": "독막길입구", "TURN_P": "0", "UPDATEDATE": "20230519", "REMARK": null, "HIST_TYPE": null, "HISTREMARK": null }, "geometry": { "type": "Point", "coordinates": [ 195527.047899999655783, 549171.962600000202656 ] } },
{ "type": "Feature", "properties": { "NODE_ID": "1020037200", "NODE_TYPE": "105", "NODE_NAME": "용산구-마포구", "TURN_P": "0", "UPDATEDATE": "20230519", "REMARK": null, "HIST_TYPE": null, "HISTREMARK": null }, "geometry": { "type": "Point", "coordinates": [ 195121.35259999986738, 548257.351399999111891 ] } },
{ "type": "Feature", "properties": { "NODE_ID": "1020038200", "NODE_TYPE": "106", "NODE_NAME": "한강공원이촌지구서빙고입구", "TURN_P": "0", "UPDATEDATE": "20230519", "REMARK": null, "HIST_TYPE": null, "HISTREMARK": null }, "geometry": { "type": "Point", "coordinates": [ 198837.814500000327826, 546362.752499999478459 ] } },
{ "type": "Feature", "properties": { "NODE_ID": "1020012900", "NODE_TYPE": "106", "NODE_NAME": "이촌우성아파트", "TURN_P": "0", "UPDATEDATE": "20230519", "REMARK": null, "HIST_TYPE": null, "HISTREMARK": null }, "geometry": { "type": "Point", "coordinates": [ 196166.681200000457466, 547050.448999999091029 ] } },
{ "type": "Feature", "properties": { "NODE_ID": "1190120800", "NODE_TYPE": "101", "NODE_NAME": "본동 484", "TURN_P": "0", "UPDATEDATE": "20250512", "REMARK": null, "HIST_TYPE": "NODE0001", "HISTREMARK": null }, "geometry": { "type": "Point", "coordinates": [ 195912.416524584055878, 545553.010108442627825 ] } },
{ "type": "Feature", "properties": { "NODE_ID": "1020065200", "NODE_TYPE": "101", "NODE_NAME": "이태원동 685", "TURN_P": "0", "UPDATEDATE": "20250512", "REMARK": null, "HIST_TYPE": "NODE0001", "HISTREMARK": null }, "geometry": { "type": "Point", "coordinates": [ 198856.755897050054045, 548844.623084059916437 ] } },
{ "type": "Feature", "properties": { "NODE_ID": "1130219000", "NODE_TYPE": "101", "NODE_NAME": "신공덕동 1-4", "TURN_P": "0", "UPDATEDATE": "20250512", "REMARK": null, "HIST_TYPE": "NODE0001", "HISTREMARK": null }, "geometry": { "type": "Point", "coordinates": [ 196256.818648989952635, 549729.743476822972298 ] } },
{ "type": "Feature", "properties": { "NODE_ID": "1020153400", "NODE_TYPE": "101", "NODE_NAME": "한강로3가 64", "TURN_P": "0", "UPDATEDATE": "20250512", "REMARK": null, "HIST_TYPE": "NODE0001", "HISTREMARK": null }, "geometry": { "type": "Point", "coordinates": [ 197054.595285975956358, 547334.181328574079089 ] } },
{ "type": "Feature", "properties": { "NODE_ID": "1020199200", "NODE_TYPE": "101", "NODE_NAME": "청파동2가 120-4", "TURN_P": "0", "UPDATEDATE": "20250512", "REMARK": null, "HIST_TYPE": "NODE0001", "HISTREMARK": null }, "geometry": { "type": "Point", "coordinates": [ 197379.59672872844385, 549621.941223004949279 ] } },
{ "type": "Feature", "properties": { "NODE_ID": "1020037400", "NODE_TYPE": "101", "NODE_NAME": "원효대교(북측)", "TURN_P": "0", "UPDATEDATE": "20250512", "REMARK": null, "HIST_TYPE": "NODE0005", "HISTREMARK": null }, "geometry": { "type": "Point", "coordinates": [ 195805.221499999985099, 547880.107400000095367 ] } },
{ "type": "Feature", "properties": { "NODE_ID": "1020007500", "NODE_TYPE": "106", "NODE_NAME": "반포대교(북측)", "TURN_P": "0", "UPDATEDATE": "20250512", "REMARK": null, "HIST_TYPE": "NODE0005", "HISTREMARK": null }, "geometry": { "type": "Point", "coordinates": [ 199125.566599999554455, 546392.001199999824166 ] } },
{ "type": "Feature", "properties": { "NODE_ID": "1130056601", "NODE_TYPE": "102", "NODE_NAME": "공덕초등학교", "TURN_P": "0", "UPDATEDATE": "20250512", "REMARK": null, "HIST_TYPE": "NODE0001", "HISTREMARK": null }, "geometry": { "type": "Point", "coordinates": [ 195909.756599999964237, 549669.96169999986887 ] } },
{ "type": "Feature", "properties": { "NODE_ID": "1020011004", "NODE_TYPE": "101", "NODE_NAME": "이촌1동주민센터", "TURN_P": "0", "UPDATEDATE": "20250512", "REMARK": null, "HIST_TYPE": "NODE0001", "HISTREMARK": null }, "geometry": { "type": "Point", "coordinates": [ 197613.821385151328286, 546910.597774965455756 ] } },
{ "type": "Feature", "properties": { "NODE_ID": "1020014504", "NODE_TYPE": "101", "NODE_NAME": "캐나다대사관저", "TURN_P": "0", "UPDATEDATE": "20250512", "REMARK": null, "HIST_TYPE": "NODE0001", "HISTREMARK": null }, "geometry": { "type": "Point", "coordinates": [ 199676.202158524567494, 547392.87736281787511 ] } },
{ "type": "Feature", "properties": { "NODE_ID": "1020023001", "NODE_TYPE": "101", "NODE_NAME": "원효로3가 142-1", "TURN_P": "0", "UPDATEDATE": "20250512", "REMARK": null, "HIST_TYPE": "NODE0001", "HISTREMARK": null }, "geometry": { "type": "Point", "coordinates": [ 196151.555517270724522, 548243.53565517696552 ] } },
{ "type": "Feature", "properties": { "NODE_ID": "1130010204", "NODE_TYPE": "101", "NODE_NAME": "도화동 293-1", "TURN_P": "1", "UPDATEDATE": "20250512", "REMARK": null, "HIST_TYPE": "NODE0001", "HISTREMARK": null }, "geometry": { "type": "Point", "coordinates": [ 195309.903302582359174, 548990.012583857867867 ] } },
{ "type": "Feature", "properties": { "NODE_ID": "1130017803", "NODE_TYPE": "101", "NODE_NAME": "공덕동 237-9", "TURN_P": "0", "UPDATEDATE": "20250512", "REMARK": null, "HIST_TYPE": "NODE0001", "HISTREMARK": null }, "geometry": { "type": "Point", "coordinates": [ 195904.667997833079426, 549777.205751483910717 ] } },
{ "type": "Feature", "properties": { "NODE_ID": "1130009604", "NODE_TYPE": "101", "NODE_NAME": "미디어닷", "TURN_P": "0", "UPDATEDATE": "20250512", "REMARK": null, "HIST_TYPE": "NODE0001", "HISTREMARK": null }, "geometry": { "type": "Point", "coordinates": [ 195069.496301375882467, 548893.462615072727203 ] } },
{ "type": "Feature", "properties": { "NODE_ID": "1130011601", "NODE_TYPE": "101", "NODE_NAME": "염리초교", "TURN_P": "0", "UPDATEDATE": "20250512", "REMARK": null, "HIST_TYPE": "NODE0001", "HISTREMARK": null }, "geometry": { "type": "Point", "coordinates": [ 195300.860669646062888, 549217.865430748322979 ] } },
{ "type": "Feature", "properties": { "NODE_ID": "1020013703", "NODE_TYPE": "101", "NODE_NAME": "주한키르기스스탄대사관", "TURN_P": "0", "UPDATEDATE": "20250512", "REMARK": null, "HIST_TYPE": "NODE0001", "HISTREMARK": null }, "geometry": { "type": "Point", "coordinates": [ 199638.931893433269579, 547302.849380383500829 ] } },
{ "type": "Feature", "properties": { "NODE_ID": "1020038601", "NODE_TYPE": "104", "NODE_NAME": "잠수교", "TURN_P": "0", "UPDATEDATE": "20250512", "REMARK": null, "HIST_TYPE": "NODE0001", "HISTREMARK": null }, "geometry": { "type": "Point", "coordinates": [ 199447.530399993091123, 546947.755499996128492 ] } },
{ "type": "Feature", "properties": { "NODE_ID": "1190014803", "NODE_TYPE": "101", "NODE_NAME": "흑석동 225-44", "TURN_P": "0", "UPDATEDATE": "20250512", "REMARK": null, "HIST_TYPE": "NODE0001", "HISTREMARK": null }, "geometry": { "type": "Point", "coordinates": [ 196612.303123564692214, 545327.160322982119396 ] } },
{ "type": "Feature", "properties": { "NODE_ID": "1020014816", "NODE_TYPE": "101", "NODE_NAME": "용산역사거리", "TURN_P": "1", "UPDATEDATE": "20250512", "REMARK": null, "HIST_TYPE": "NODE0001", "HISTREMARK": null }, "geometry": { "type": "Point", "coordinates": [ 196999.087585043598665, 547538.921947644092143 ] } },
{ "type": "Feature", "properties": { "NODE_ID": "1020027101", "NODE_TYPE": "104", "NODE_NAME": "삼각지고가차도(서측)", "TURN_P": "0", "UPDATEDATE": "20250512", "REMARK": null, "HIST_TYPE": "NODE0001", "HISTREMARK": null }, "geometry": { "type": "Point", "coordinates": [ 197152.15019700632547, 548682.783901148359291 ] } },
{ "type": "Feature", "properties": { "NODE_ID": "1020034000", "NODE_TYPE": "101", "NODE_NAME": "갈월동 3-15", "TURN_P": "0", "UPDATEDATE": "20250512", "REMARK": null, "HIST_TYPE": "NODE0005", "HISTREMARK": null }, "geometry": { "type": "Point", "coordinates": [ 197502.898400000296533, 549941.908099999651313 ] } },
{ "type": "Feature", "properties": { "NODE_ID": "1130056303", "NODE_TYPE": "101", "NODE_NAME": "공덕동 252-6", "TURN_P": "0", "UPDATEDATE": "20250512", "REMARK": null, "HIST_TYPE": "NODE0001", "HISTREMARK": null }, "geometry": { "type": "Point", "coordinates": [ 195944.629081084305653, 549744.568691259948537 ] } },
{ "type": "Feature", "properties": { "NODE_ID": "1020180500", "NODE_TYPE": "101", "NODE_NAME": "갈월동 9", "TURN_P": "0", "UPDATEDATE": "20250512", "REMARK": null, "HIST_TYPE": "NODE0001", "HISTREMARK": null }, "geometry": { "type": "Point", "coordinates": [ 197517.308879599848296, 549855.136392091168091 ] } },
{ "type": "Feature", "properties": { "NODE_ID": "1130207200", "NODE_TYPE": "101", "NODE_NAME": "도화동 169-3", "TURN_P": "0", "UPDATEDATE": "20250512", "REMARK": null, "HIST_TYPE": "NODE0001", "HISTREMARK": null }, "geometry": { "type": "Point", "coordinates": [ 195472.652949531155173, 549052.502841327921487 ] } },
{ "type": "Feature", "properties": { "NODE_ID": "1190183400", "NODE_TYPE": "107", "NODE_NAME": "최소노드배치점", "TURN_P": "0", "UPDATEDATE": "20250512", "REMARK": null, "HIST_TYPE": "NODE0001", "HISTREMARK": null }, "geometry": { "type": "Point", "coordinates": [ 197330.07361930605839, 545150.483759630122222 ] } },
{ "type": "Feature", "properties": { "NODE_ID": "1020063500", "NODE_TYPE": "101", "NODE_NAME": "이태원동 137-23", "TURN_P": "0", "UPDATEDATE": "20250512", "REMARK": null, "HIST_TYPE": "NODE0001", "HISTREMARK": null }, "geometry": { "type": "Point", "coordinates": [ 199622.997090046992525, 548279.843625176581554 ] } },
{ "type": "Feature", "properties": { "NODE_ID": "1130213200", "NODE_TYPE": "101", "NODE_NAME": "염리동 170-15", "TURN_P": "0", "UPDATEDATE": "20250512", "REMARK": null, "HIST_TYPE": "NODE0001", "HISTREMARK": null }, "geometry": { "type": "Point", "coordinates": [ 195249.92126392989303, 549342.089589743874967 ] } },
{ "type": "Feature", "properties": { "NODE_ID": "1190050800", "NODE_TYPE": "101", "NODE_NAME": "상도1동 528-1", "TURN_P": "0", "UPDATEDATE": "20250512", "REMARK": null, "HIST_TYPE": "NODE0001", "HISTREMARK": null }, "geometry": { "type": "Point", "coordinates": [ 195588.452822653198382, 545063.771222952171229 ] } },
{ "type": "Feature", "properties": { "NODE_ID": "1190113800", "NODE_TYPE": "101", "NODE_NAME": "흑석동 201-7", "TURN_P": "0", "UPDATEDATE": "20250512", "REMARK": null, "HIST_TYPE": "NODE0001", "HISTREMARK": null }, "geometry": { "type": "Point", "coordinates": [ 196174.507972703024279, 545463.61285754328128 ] } },
{ "type": "Feature", "properties": { "NODE_ID": "1020117000", "NODE_TYPE": "101", "NODE_NAME": "한남동 743-28", "TURN_P": "0", "UPDATEDATE": "20250512", "REMARK": null, "HIST_TYPE": "NODE0001", "HISTREMARK": null }, "geometry": { "type": "Point", "coordinates": [ 199980.307338538201293, 548694.430903182830662 ] } },
{ "type": "Feature", "properties": { "NODE_ID": "1130220800", "NODE_TYPE": "101", "NODE_NAME": "공덕동 370-9", "TURN_P": "0", "UPDATEDATE": "20250512", "REMARK": null, "HIST_TYPE": "NODE0001", "HISTREMARK": null }, "geometry": { "type": "Point", "coordinates": [ 195553.025222405907698, 549918.805332096875645 ] } },
{ "type": "Feature", "properties": { "NODE_ID": "1130221300", "NODE_TYPE": "101", "NODE_NAME": "공덕동 111-365", "TURN_P": "0", "UPDATEDATE": "20250512", "REMARK": null, "HIST_TYPE": "NODE0001", "HISTREMARK": null }, "geometry": { "type": "Point", "coordinates": [ 196464.086842554126633, 549626.696708470699377 ] } },
{ "type": "Feature", "properties": { "NODE_ID": "1130222500", "NODE_TYPE": "101", "NODE_NAME": "도화동 357-2", "TURN_P": "0", "UPDATEDATE": "20250512", "REMARK": null, "HIST_TYPE": "NODE0001", "HISTREMARK": null }, "geometry": { "type": "Point", "coordinates": [ 196055.996168721176218, 549011.155840245075524 ] } },
{ "type": "Feature", "properties": { "NODE_ID": "1020153700", "NODE_TYPE": "101", "NODE_NAME": "청파동3가 132-198", "TURN_P": "0", "UPDATEDATE": "20250512", "REMARK": null, "HIST_TYPE": "NODE0001", "HISTREMARK": null }, "geometry": { "type": "Point", "coordinates": [ 196672.464790012949379, 549356.213174631120637 ] } },
{ "type": "Feature", "properties": { "NODE_ID": "1020156100", "NODE_TYPE": "101", "NODE_NAME": "이촌동 171-1", "TURN_P": "0", "UPDATEDATE": "20250512", "REMARK": null, "HIST_TYPE": "NODE0001", "HISTREMARK": null }, "geometry": { "type": "Point", "coordinates": [ 196088.475650098000187, 547454.616233587497845 ] } },
{ "type": "Feature", "properties": { "NODE_ID": "1190121300", "NODE_TYPE": "101", "NODE_NAME": "노량진동 324-1", "TURN_P": "0", "UPDATEDATE": "20250512", "REMARK": null, "HIST_TYPE": "NODE0001", "HISTREMARK": null }, "geometry": { "type": "Point", "coordinates": [ 195620.077217972197104, 545403.499996622209437 ] } },
{ "type": "Feature", "properties": { "NODE_ID": "1020202500", "NODE_TYPE": "107", "NODE_NAME": "최소노드배치점", "TURN_P": "0", "UPDATEDATE": "20250512", "REMARK": null, "HIST_TYPE": "NODE0001", "HISTREMARK": null }, "geometry": { "type": "Point", "coordinates": [ 199307.756421008438338, 549655.242508554365486 ] } },
{ "type": "Feature", "properties": { "NODE_ID": "1020202900", "NODE_TYPE": "107", "NODE_NAME": "최소노드배치점", "TURN_P": "0", "UPDATEDATE": "20250512", "REMARK": null, "HIST_TYPE": "NODE0001", "HISTREMARK": null }, "geometry": { "type": "Point", "coordinates": [ 199927.089310301293153, 549578.768027636455372 ] } },
{ "type": "Feature", "properties": { "NODE_ID": "1210467200", "NODE_TYPE": "107", "NODE_NAME": "최소노드배치점", "TURN_P": "0", "UPDATEDATE": "20250512", "REMARK": null, "HIST_TYPE": "NODE0001", "HISTREMARK": null }, "geometry": { "type": "Point", "coordinates": [ 199779.392884572036564, 545924.308272465481423 ] } },
{ "type": "Feature", "properties": { "NODE_ID": "1190013201", "NODE_TYPE": "101", "NODE_NAME": "상도동 7-55", "TURN_P": "0", "UPDATEDATE": "20250512", "REMARK": null, "HIST_TYPE": "NODE0001", "HISTREMARK": null }, "geometry": { "type": "Point", "coordinates": [ 195898.783277441427344, 545067.415943312342279 ] } },
{ "type": "Feature", "properties": { "NODE_ID": "1020027202", "NODE_TYPE": "101", "NODE_NAME": "원효로2가 1-133", "TURN_P": "0", "UPDATEDATE": "20250512", "REMARK": null, "HIST_TYPE": "NODE0001", "HISTREMARK": null }, "geometry": { "type": "Point", "coordinates": [ 196900.157410504441941, 548656.186388617381454 ] } },
{ "type": "Feature", "properties": { "NODE_ID": "1190001702", "NODE_TYPE": "101", "NODE_NAME": "상도터널앞", "TURN_P": "0", "UPDATEDATE": "20250512", "REMARK": null, "HIST_TYPE": "NODE0001", "HISTREMARK": null }, "geometry": { "type": "Point", "coordinates": [ 195617.465058907284401, 545025.649671367020346 ] } },
{ "type": "Feature", "properties": { "NODE_ID": "1210047402", "NODE_TYPE": "105", "NODE_NAME": "용산구-서초구", "TURN_P": "0", "UPDATEDATE": "20250512", "REMARK": null, "HIST_TYPE": "NODE0001", "HISTREMARK": null }, "geometry": { "type": "Point", "coordinates": [ 199628.40689999825554, 546316.954799997503869 ] } },
{ "type": "Feature", "properties": { "NODE_ID": "1020007602", "NODE_TYPE": "101", "NODE_NAME": "서빙고동271-100", "TURN_P": "0", "UPDATEDATE": "20250512", "REMARK": null, "HIST_TYPE": "NODE0001", "HISTREMARK": null }, "geometry": { "type": "Point", "coordinates": [ 199082.796466640749713, 546433.012930852244608 ] } },
{ "type": "Feature", "properties": { "NODE_ID": "1020003804", "NODE_TYPE": "101", "NODE_NAME": "원효로1가23-18", "TURN_P": "0", "UPDATEDATE": "20250512", "REMARK": null, "HIST_TYPE": "NODE0001", "HISTREMARK": null }, "geometry": { "type": "Point", "coordinates": [ 196831.459111231786665, 548778.676042891573161 ] } },
{ "type": "Feature", "properties": { "NODE_ID": "1190017104", "NODE_TYPE": "101", "NODE_NAME": "경동윈츠리버아파트", "TURN_P": "0", "UPDATEDATE": "20250512", "REMARK": null, "HIST_TYPE": "NODE0001", "HISTREMARK": null }, "geometry": { "type": "Point", "coordinates": [ 196005.51827783495537, 545545.180985493585467 ] } },
{ "type": "Feature", "properties": { "NODE_ID": "1020030902", "NODE_TYPE": "101", "NODE_NAME": "주공이태원아파트", "TURN_P": "0", "UPDATEDATE": "20250512", "REMARK": null, "HIST_TYPE": "NODE0001", "HISTREMARK": null }, "geometry": { "type": "Point", "coordinates": [ 199029.698640899907332, 549320.677649396238849 ] } },
{ "type": "Feature", "properties": { "NODE_ID": "1130012604", "NODE_TYPE": "101", "NODE_NAME": "서울디지털대학교(마포캠퍼스)", "TURN_P": "0", "UPDATEDATE": "20250512", "REMARK": null, "HIST_TYPE": "NODE0001", "HISTREMARK": null }, "geometry": { "type": "Point", "coordinates": [ 195385.96110288699856, 549326.409033562638797 ] } },
{ "type": "Feature", "properties": { "NODE_ID": "1190032000", "NODE_TYPE": "101", "NODE_NAME": "상도1동 500-1", "TURN_P": "0", "UPDATEDATE": "20250512", "REMARK": null, "HIST_TYPE": "NODE0001", "HISTREMARK": null }, "geometry": { "type": "Point", "coordinates": [ 195769.780141791590722, 545114.90599458233919 ] } },
{ "type": "Feature", "properties": { "NODE_ID": "1020012601", "NODE_TYPE": "106", "NODE_NAME": "해늘어린이집", "TURN_P": "1", "UPDATEDATE": "20250512", "REMARK": null, "HIST_TYPE": "NODE0001", "HISTREMARK": null }, "geometry": { "type": "Point", "coordinates": [ 196511.245599888294237, 547015.205300007364713 ] } },
{ "type": "Feature", "properties": { "NODE_ID": "1020027102", "NODE_TYPE": "104", "NODE_NAME": "삼각지고가차도(서측)", "TURN_P": "0", "UPDATEDATE": "20250512", "REMARK": null, "HIST_TYPE": "NODE0001", "HISTREMARK": null }, "geometry": { "type": "Point", "coordinates": [ 197147.840115381899523, 548671.584694059216417 ] } },
{ "type": "Feature", "properties": { "NODE_ID": "1130010404", "NODE_TYPE": "101", "NODE_NAME": "용강동 38-3", "TURN_P": "1", "UPDATEDATE": "20250512", "REMARK": null, "HIST_TYPE": "NODE0001", "HISTREMARK": null }, "geometry": { "type": "Point", "coordinates": [ 195150.300185664033052, 549084.748946244711988 ] } },
{ "type": "Feature", "properties": { "NODE_ID": "1020045200", "NODE_TYPE": "101", "NODE_NAME": "한남동 738-29", "TURN_P": "0", "UPDATEDATE": "20250512", "REMARK": null, "HIST_TYPE": "NODE0001", "HISTREMARK": null }, "geometry": { "type": "Point", "coordinates": [ 199904.280052744434215, 548424.620030064717866 ] } },
{ "type": "Feature", "properties": { "NODE_ID": "1020058700", "NODE_TYPE": "101", "NODE_NAME": "이태원동 243-60", "TURN_P": "0", "UPDATEDATE": "20250512", "REMARK": null, "HIST_TYPE": "NODE0001", "HISTREMARK": null }, "geometry": { "type": "Point", "coordinates": [ 199584.432263530179625, 548873.026419108151458 ] } },
{ "type": "Feature", "properties": { "NODE_ID": "1190026100", "NODE_TYPE": "103", "NODE_NAME": "속성변화점", "TURN_P": "0", "UPDATEDATE": "20230519", "REMARK": null, "HIST_TYPE": null, "HISTREMARK": null }, "geometry": { "type": "Point", "coordinates": [ 195732.906299999915063, 546180.457100000232458 ] } },
{ "type": "Feature", "properties": { "NODE_ID": "1020071200", "NODE_TYPE": "101", "NODE_NAME": "도원동 25", "TURN_P": "0", "UPDATEDATE": "20250512", "REMARK": null, "HIST_TYPE": "NODE0001", "HISTREMARK": null }, "geometry": { "type": "Point", "coordinates": [ 196114.417619264742825, 548929.426746578305028 ] } },
{ "type": "Feature", "properties": { "NODE_ID": "1020071700", "NODE_TYPE": "101", "NODE_NAME": "한강로2가 140-1", "TURN_P": "0", "UPDATEDATE": "20250512", "REMARK": null, "HIST_TYPE": "NODE0001", "HISTREMARK": null }, "geometry": { "type": "Point", "coordinates": [ 197273.326076520315837, 547879.961751164868474 ] } },
{ "type": "Feature", "properties": { "NODE_ID": "1020090300", "NODE_TYPE": "101", "NODE_NAME": "한강로2가 257-1", "TURN_P": "0", "UPDATEDATE": "20250512", "REMARK": null, "HIST_TYPE": "NODE0001", "HISTREMARK": null }, "geometry": { "type": "Point", "coordinates": [ 197454.106501729605952, 548122.410134979407303 ] } },
{ "type": "Feature", "properties": { "NODE_ID": "1020188700", "NODE_TYPE": "101", "NODE_NAME": "청파동3가 110-1", "TURN_P": "0", "UPDATEDATE": "20250512", "REMARK": null, "HIST_TYPE": "NODE0001", "HISTREMARK": null }, "geometry": { "type": "Point", "coordinates": [ 197128.823721290827962, 549468.712658399483189 ] } },
{ "type": "Feature", "properties": { "NODE_ID": "1020190600", "NODE_TYPE": "101", "NODE_NAME": "청파동3가 26-28", "TURN_P": "0", "UPDATEDATE": "20250512", "REMARK": null, "HIST_TYPE": "NODE0001", "HISTREMARK": null }, "geometry": { "type": "Point", "coordinates": [ 197279.139994591649156, 549432.402672702679411 ] } },
{ "type": "Feature", "properties": { "NODE_ID": "1020119300", "NODE_TYPE": "101", "NODE_NAME": "이촌동 301-5", "TURN_P": "0", "UPDATEDATE": "20250512", "REMARK": null, "HIST_TYPE": "NODE0001", "HISTREMARK": null }, "geometry": { "type": "Point", "coordinates": [ 197749.505966379190795, 546688.48489175515715 ] } },
{ "type": "Feature", "properties": { "NODE_ID": "1020119400", "NODE_TYPE": "101", "NODE_NAME": "한강로3가 40-112", "TURN_P": "0", "UPDATEDATE": "20250512", "REMARK": null, "HIST_TYPE": "NODE0001", "HISTREMARK": null }, "geometry": { "type": "Point", "coordinates": [ 196835.186882738198619, 547489.870601034257561 ] } },
{ "type": "Feature", "properties": { "NODE_ID": "1190116000", "NODE_TYPE": "101", "NODE_NAME": "흑석동 181-10", "TURN_P": "0", "UPDATEDATE": "20250512", "REMARK": null, "HIST_TYPE": "NODE0001", "HISTREMARK": null }, "geometry": { "type": "Point", "coordinates": [ 196582.944024676660774, 545454.763937986455858 ] } },
{ "type": "Feature", "properties": { "NODE_ID": "1190116200", "NODE_TYPE": "101", "NODE_NAME": "흑석동 223-17", "TURN_P": "0", "UPDATEDATE": "20250512", "REMARK": null, "HIST_TYPE": "NODE0001", "HISTREMARK": null }, "geometry": { "type": "Point", "coordinates": [ 196415.998224991169991, 545302.738693292019889 ] } },
{ "type": "Feature", "properties": { "NODE_ID": "1130164400", "NODE_TYPE": "101", "NODE_NAME": "용강동 38-3", "TURN_P": "0", "UPDATEDATE": "20250512", "REMARK": null, "HIST_TYPE": "NODE0001", "HISTREMARK": null }, "geometry": { "type": "Point", "coordinates": [ 195098.345003662048839, 548927.645429282682016 ] } },
{ "type": "Feature", "properties": { "NODE_ID": "1020148500", "NODE_TYPE": "101", "NODE_NAME": "효창동 5-713", "TURN_P": "0", "UPDATEDATE": "20250512", "REMARK": null, "HIST_TYPE": "NODE0001", "HISTREMARK": null }, "geometry": { "type": "Point", "coordinates": [ 196302.452068044309271, 549022.158240988268517 ] } },
{ "type": "Feature", "properties": { "NODE_ID": "1130226500", "NODE_TYPE": "101", "NODE_NAME": "신공덕동 148-19", "TURN_P": "0", "UPDATEDATE": "20250512", "REMARK": null, "HIST_TYPE": "NODE0001", "HISTREMARK": null }, "geometry": { "type": "Point", "coordinates": [ 196124.989994504052447, 549112.099072765675373 ] } },
{ "type": "Feature", "properties": { "NODE_ID": "1020201900", "NODE_TYPE": "107", "NODE_NAME": "최소노드배치점", "TURN_P": "0", "UPDATEDATE": "20250512", "REMARK": null, "HIST_TYPE": "NODE0001", "HISTREMARK": null }, "geometry": { "type": "Point", "coordinates": [ 198884.037801509839483, 549986.283953091595322 ] } },
{ "type": "Feature", "properties": { "NODE_ID": "1020179600", "NODE_TYPE": "107", "NODE_NAME": "최소노드배치점", "TURN_P": "0", "UPDATEDATE": "20250512", "REMARK": null, "HIST_TYPE": "NODE0001", "HISTREMARK": null }, "geometry": { "type": "Point", "coordinates": [ 196168.006846726231743, 547074.640032054740004 ] } },
{ "type": "Feature", "properties": { "NODE_ID": "1020041402", "NODE_TYPE": "101", "NODE_NAME": "아모레퍼시픽미술관", "TURN_P": "0", "UPDATEDATE": "20250512", "REMARK": null, "HIST_TYPE": "NODE0001", "HISTREMARK": null }, "geometry": { "type": "Point", "coordinates": [ 197336.187780291977106, 547728.563109495211393 ] } },
{ "type": "Feature", "properties": { "NODE_ID": "1130009904", "NODE_TYPE": "101", "NODE_NAME": "도화동 293-3", "TURN_P": "0", "UPDATEDATE": "20250512", "REMARK": null, "HIST_TYPE": "NODE0001", "HISTREMARK": null }, "geometry": { "type": "Point", "coordinates": [ 195353.217120086512296, 548944.029819000279531 ] } },
{ "type": "Feature", "properties": { "NODE_ID": "1020021404", "NODE_TYPE": "101", "NODE_NAME": "보광초등학교", "TURN_P": "0", "UPDATEDATE": "20250512", "REMARK": null, "HIST_TYPE": "NODE0001", "HISTREMARK": null }, "geometry": { "type": "Point", "coordinates": [ 199603.611364426120417, 548179.825541424797848 ] } },
{ "type": "Feature", "properties": { "NODE_ID": "1130010202", "NODE_TYPE": "101", "NODE_NAME": "도화동 293-1", "TURN_P": "1", "UPDATEDATE": "20250512", "REMARK": null, "HIST_TYPE": "NODE0001", "HISTREMARK": null }, "geometry": { "type": "Point", "coordinates": [ 195327.40421068033902, 548989.624406503629871 ] } },
{ "type": "Feature", "properties": { "NODE_ID": "1190028503", "NODE_TYPE": "101", "NODE_NAME": "조선일보뉴지엄", "TURN_P": "0", "UPDATEDATE": "20250512", "REMARK": null, "HIST_TYPE": "NODE0001", "HISTREMARK": null }, "geometry": { "type": "Point", "coordinates": [ 197075.516457870777231, 545269.187255239114165 ] } },
{ "type": "Feature", "properties": { "NODE_ID": "1130009601", "NODE_TYPE": "101", "NODE_NAME": "미디어닷", "TURN_P": "0", "UPDATEDATE": "20250512", "REMARK": null, "HIST_TYPE": "NODE0001", "HISTREMARK": null }, "geometry": { "type": "Point", "coordinates": [ 195078.464089787565172, 548885.482701302971691 ] } },
{ "type": "Feature", "properties": { "NODE_ID": "1130011603", "NODE_TYPE": "101", "NODE_NAME": "염리초교", "TURN_P": "0", "UPDATEDATE": "20250512", "REMARK": null, "HIST_TYPE": "NODE0001", "HISTREMARK": null }, "geometry": { "type": "Point", "coordinates": [ 195283.919601272413274, 549217.372449470101856 ] } },
{ "type": "Feature", "properties": { "NODE_ID": "1130011604", "NODE_TYPE": "101", "NODE_NAME": "염리초교", "TURN_P": "0", "UPDATEDATE": "20250512", "REMARK": null, "HIST_TYPE": "NODE0001", "HISTREMARK": null }, "geometry": { "type": "Point", "coordinates": [ 195292.097067975060781, 549226.062928961822763 ] } },
{ "type": "Feature", "properties": { "NODE_ID": "1020011801", "NODE_TYPE": "101", "NODE_NAME": "대우아파트", "TURN_P": "0", "UPDATEDATE": "20250512", "REMARK": null, "HIST_TYPE": "NODE0001", "HISTREMARK": null }, "geometry": { "type": "Point", "coordinates": [ 197458.015135957073653, 546971.129935252130963 ] } },
{ "type": "Feature", "properties": { "NODE_ID": "1190014702", "NODE_TYPE": "101", "NODE_NAME": "노량진동 324-2", "TURN_P": "0", "UPDATEDATE": "20250512", "REMARK": null, "HIST_TYPE": "NODE0001", "HISTREMARK": null }, "geometry": { "type": "Point", "coordinates": [ 195415.990290427871514, 545295.928481186972931 ] } },
{ "type": "Feature", "properties": { "NODE_ID": "1130011302", "NODE_TYPE": "101", "NODE_NAME": "공덕역(공항철도)", "TURN_P": "0", "UPDATEDATE": "20250512", "REMARK": null, "HIST_TYPE": "NODE0001", "HISTREMARK": null }, "geometry": { "type": "Point", "coordinates": [ 195700.341946383065078, 549184.09901710646227 ] } }
]
}
